ONEWEB-0340             
1 49206U 21083W   24184.52933603  .00000090  00000+0  19619-3 0  9992
2 49206  87.9153 117.7209 0001983  83.2644 276.8714 13.18686626135787
ONEWEB-0341             
1 49207U 21083X   24184.53723832  .00000060  00000+0  12037-3 0  9999
2 49207  87.9152 117.7330 0001465  63.5929 296.5353 13.18687142135809
ONEWEB-0342             
1 49208U 21083Y   24184.58554140 -.00000202  00000+0 -52941-3 0  9997
2 49208  87.9191  56.6463 0001942  76.2125 283.9224 13.20771127142456
ONEWEB-0343             
1 49209U 21083Z   24184.38073118  .00000059  00000+0  11642-3 0  9998
2 49209  87.9146 117.7703 0001683  63.5270 296.6035 13.18687683135830
ONEWEB-0344             
1 49210U 21083AA  24184.47085750  .00000171  00000+0  43334-3 0  9993
2 49210  87.8937 102.5140 0001479  79.3755 280.7540 13.13468460137070
ONEWEB-0345             
1 49211U 21083AB  24184.48830722 -.00000290  00000+0 -82777-3 0  9990
2 49211  87.8933 102.4851 0001441  79.6932 280.4359 13.13468874137089
ONEWEB-0346             
1 49212U 21083AC  24184.31435261  .00000032  00000+0  47773-4 0  9992
2 49212  87.9153 117.7861 0001977  92.1385 267.9973 13.18685917135760
ONEWEB-0348             
1 49213U 21083AD  24184.57607212 -.00000167  00000+0 -44178-3 0  9994
2 49213  87.9201  56.6220 0001362 101.1285 259.0002 13.20770929142486
